NORAD_CAT_ID,OBJECT_NAME,OBJECT_TYPE,EPOCH,MEAN_MOTION,ECCENTRICITY,INCLINATION,RA_OF_ASC_NODE,ARG_OF_PERICENTER,MEAN_ANOMALY,BSTAR,MEAN_MOTION_DOT,MEAN_MOTION_DDOT,TLE_LINE0,TLE_LINE1,TLE_LINE2,SEMIMAJOR_AXIS,PERIOD,APOGEE,PERIGEE,DECAYED
55935.0,STARLINK-5920,PAYLOAD,2023-11-04 04:39:05,14.98390595,0.0002727,69.9996,284.054,261.683,98.402,0.00064582,7.633e-05,0.0,0 STARLINK-5920,1 55935U 23037X   23308.19381131  .00007633  00000-0  64582-3 0  9992,2 55935  69.9996 284.0540 0002727 261.6830  98.4020 14.98390595 36021,6950.006,96.103,573.766,569.975,0.0
55935.0,STARLINK-5920,PAYLOAD,2023-11-04 09:27:33,14.98332659,0.0002535,69.9997,283.5488,267.3312,92.7557,-5.2558e-05,-7.2e-06,0.0,0 STARLINK-5920,1 55935U 23037X   23308.39414326 -.00000720  00000-0 -52558-4 0  9990,2 55935  69.9997 283.5488 0002535 267.3312  92.7557 14.98332659 36054,6950.185,96.107,573.812,570.288,0.0
55935.0,STARLINK-5920,PAYLOAD,2023-11-04 12:39:49,14.98331385,0.0003107,70.0,283.2124,263.7563,96.3243,-2.6472e-05,-4.09e-06,0.0,0 STARLINK-5920,1 55935U 23037X   23308.52766071 -.00000409  00000-0 -26472-4 0  9992,2 55935  70.0000 283.2124 0003107 263.7563  96.3243 14.98331385 35731,6950.189,96.107,574.213,569.894,0.0
55935.0,STARLINK-5920,PAYLOAD,2023-11-04 19:04:21,14.98336332,0.0002421,70.0001,282.5383,274.0197,86.0685,5.4125e-05,5.53e-06,0.0,0 STARLINK-5920,1 55935U 23037X   23308.79469853  .00000553  00000-0  54125-4 0  9993,2 55935  70.0001 282.5383 0002421 274.0197  86.0685 14.98336332 35774,6950.173,96.107,573.721,570.356,0.0
55935.0,STARLINK-5920,PAYLOAD,2023-11-05 07:53:26,14.98333268,0.0002281,70.0,281.1921,266.9332,93.1566,0.00015895,1.804e-05,0.0,0 STARLINK-5920,1 55935U 23037X   23309.32877711  .00001804  00000-0  15895-3 0  9999,2 55935  70.0000 281.1921 0002281 266.9332  93.1566 14.98333268 35852,6950.183,96.107,573.633,570.462,0.0
55935.0,STARLINK-5920,PAYLOAD,2023-11-05 15:54:06,14.98333173,0.0002482,70.0009,280.3507,279.8673,80.2205,4.9786e-05,5.01e-06,0.0,0 STARLINK-5920,1 55935U 23037X   23309.66257919  .00000501  00000-0  49786-4 0  9998,2 55935  70.0009 280.3507 0002482 279.8673  80.2205 14.98333173 36242,6950.183,96.107,573.773,570.323,0.0
55935.0,STARLINK-5920,PAYLOAD,2023-11-06 04:43:09,14.98349526,0.0002681,69.9994,279.0039,268.2712,91.814,0.00022815,2.632e-05,0.0,0 STARLINK-5920,1 55935U 23037X   23310.19664138  .00002632  00000-0  22815-3 0  9993,2 55935  69.9994 279.0039 0002681 268.2712  91.8140 14.98349526 36328,6950.133,96.106,573.861,570.134,0.0
55935.0,STARLINK-5920,PAYLOAD,2023-11-06 07:55:25,14.98349735,0.0002857,69.9992,278.6672,269.8038,90.2794,0.00021403,2.463e-05,0.0,0 STARLINK-5920,1 55935U 23037X   23310.33016010  .00002463  00000-0  21403-3 0  9993,2 55935  69.9992 278.6672 0002857 269.8038  90.2794 14.98349735 36002,6950.132,96.106,573.983,570.011,0.0
55935.0,STARLINK-5920,PAYLOAD,2023-11-06 15:56:08,14.9832199,0.0002927,70.0002,277.8255,273.1499,86.9325,-0.00016484,-2.059e-05,0.0,0 STARLINK-5920,1 55935U 23037X   23310.66398696 -.00002059  00000-0 -16484-3 0  9998,2 55935  70.0002 277.8255 0002927 273.1499  86.9325 14.98321990 36399,6950.218,96.108,574.117,570.048,0.0
55935.0,STARLINK-5920,PAYLOAD,2023-11-06 22:20:42,14.98304841,0.0002542,69.9991,277.1532,267.3079,92.7789,-0.00019937,-2.469e-05,0.0,0 STARLINK-5920,1 55935U 23037X   23310.93104240 -.00002469  00000-0 -19937-3 0  9999,2 55935  69.9991 277.1532 0002542 267.3079  92.7789 14.98304841 36098,6950.271,96.109,573.902,570.369,0.0
55935.0,STARLINK-5920,PAYLOAD,2023-11-07 04:45:14,14.9830811,0.0002383,69.9996,276.4789,256.6668,103.4225,-0.00022081,-2.725e-05,0.0,0 STARLINK-5920,1 55935U 23037X   23311.19808396 -.00002725  00000-0 -22081-3 0  9990,2 55935  69.9996 276.4789 0002383 256.6668 103.4225 14.98308110 36477,6950.261,96.108,573.782,570.469,0.0
55935.0,STARLINK-5920,PAYLOAD,2023-11-07 07:57:30,14.98309138,0.000279,69.9993,276.143,262.1237,97.9605,-0.00027491,-3.37e-05,0.0,0 STARLINK-5920,1 55935U 23037X   23311.33160659 -.00003370  00000-0 -27491-3 0  9996,2 55935  69.9993 276.1430 0002790 262.1237  97.9605 14.98309138 36155,6950.257,96.108,574.062,570.183,0.0
55935.0,STARLINK-5920,PAYLOAD,2023-11-08 03:11:06,14.98323531,0.0002586,69.9995,274.1221,268.1142,91.9721,-9.1119e-05,-1.18e-05,0.0,0 STARLINK-5920,1 55935U 23037X   23312.13271890 -.00001180  00000-0 -91119-4 0  9991,2 55935  69.9995 274.1221 0002586 268.1142  91.9721 14.98323531 36614,6950.213,96.107,573.875,570.281,0.0
55935.0,STARLINK-5920,PAYLOAD,2023-11-08 07:59:30,14.98332446,0.0002592,69.9997,273.6196,260.7882,99.2984,-9.5238e-05,-1.229e-05,0.0,0 STARLINK-5920,1 55935U 23037X   23312.33299360 -.00001229  00000-0 -95238-4 0  9995,2 55935  69.9997 273.6196 0002592 260.7882  99.2984 14.98332446 36647,6950.185,96.107,573.852,570.249,0.0
55935.0,STARLINK-5920,PAYLOAD,2023-11-08 22:24:42,14.98327646,0.0002667,69.9988,272.1026,259.9106,100.1752,0.00037483,4.382e-05,0.0,0 STARLINK-5920,1 55935U 23037X   23312.93382326  .00004382  00000-0  37483-3 0  9994,2 55935  69.9988 272.1026 0002667 259.9106 100.1752 14.98327646 36398,6950.2,96.107,573.919,570.212,0.0
55935.0,STARLINK-5920,PAYLOAD,2023-11-09 03:13:06,14.98330124,0.0002622,69.9994,271.5971,262.4526,97.6335,0.00042125,4.937e-05,0.0,0 STARLINK-5920,1 55935U 23037X   23313.13410059  .00004937  00000-0  42125-3 0  9997,2 55935  69.9994 271.5971 0002622 262.4526  97.6335 14.98330124 36766,6950.193,96.107,573.88,570.235,0.0
55935.0,STARLINK-5920,PAYLOAD,2023-11-09 06:25:21,14.98336787,0.0002656,70.0001,271.2634,240.1859,119.9036,0.0004659,5.471e-05,0.0,0 STARLINK-5920,1 55935U 23037X   23313.26761386  .00005471  00000-0  46590-3 0  9997,2 55935  70.0001 271.2634 0002656 240.1859 119.9036 14.98336787 36789,6950.172,96.107,573.883,570.191,0.0
55935.0,STARLINK-5920,PAYLOAD,2023-11-09 22:26:43,14.98335492,0.0003228,70.0026,269.5833,209.6227,150.475,-2.8474e-05,-4.33e-06,0.0,0 STARLINK-5920,1 55935U 23037X   23313.93522698 -.00000433  00000-0 -28474-4 0  9999,2 55935  70.0026 269.5833 0003228 209.6227 150.4750 14.98335492 36541,6950.176,96.107,574.284,569.797,0.0
55935.0,STARLINK-5920,PAYLOAD,2023-11-10 03:15:08,14.98331724,0.0003027,69.9987,269.0743,265.2867,94.7946,-6.5246e-05,-8.71e-06,0.0,0 STARLINK-5920,1 55935U 23037X   23314.13551137 -.00000871  00000-0 -65246-4 0  9996,2 55935  69.9987 269.0743 0003027 265.2867  94.7946 14.98331724 36916,6950.188,96.107,574.156,569.949,0.0
55935.0,STARLINK-5920,PAYLOAD,2023-11-10 06:27:24,14.98333085,0.0002601,69.9993,268.7366,252.5611,107.5263,-0.00011812,-1.502e-05,0.0,0 STARLINK-5920,1 55935U 23037X   23314.26903122 -.00001502  00000-0 -11812-3 0  9996,2 55935  69.9993 268.7366 0002601 252.5611 107.5263 14.98333085 36594,6950.183,96.107,573.856,570.241,0.0
55935.0,STARLINK-5920,PAYLOAD,2023-11-10 14:28:04,14.98327843,0.0002857,69.9991,267.8952,256.9894,103.0946,6.1533e-06,-2e-07,0.0,0 STARLINK-5920,1 55935U 23037X   23314.60283030 -.00000020  00000-0  61533-5 0  9993,2 55935  69.9991 267.8952 0002857 256.9894 103.0946 14.98327843 36647,6950.2,96.107,574.05,570.079,0.0
55935.0,STARLINK-5920,PAYLOAD,2023-11-11 03:17:08,14.98341844,0.0002795,69.999,266.5481,262.7867,97.2975,-0.00017399,-2.169e-05,0.0,0 STARLINK-5920,1 55935U 23037X   23315.13690350 -.00002169  00000-0 -17399-3 0  9995,2 55935  69.9990 266.5481 0002795 262.7867  97.2975 14.98341844 37065,6950.156,96.106,573.964,570.079,0.0
55935.0,STARLINK-5920,PAYLOAD,2023-11-11 14:30:04,14.98341093,0.0002217,70.0006,265.3694,273.7246,86.366,-0.00016615,-2.075e-05,0.0,0 STARLINK-5920,1 55935U 23037X   23315.60422151 -.00002075  00000-0 -16615-3 0  9995,2 55935  70.0006 265.3694 0002217 273.7246  86.3660 14.98341093 36796,6950.159,96.106,573.564,570.483,0.0
55935.0,STARLINK-5920,PAYLOAD,2023-11-11 22:30:45,14.98325595,0.0002754,69.9991,264.5278,267.1797,92.9047,1.5772e-05,9.5e-07,0.0,0 STARLINK-5920,1 55935U 23037X   23315.93802509  .00000095  00000-0  15772-4 0  9992,2 55935  69.9991 264.5278 0002754 267.1797  92.9047 14.98325595 36846,6950.207,96.107,573.986,570.157,0.0
55935.0,STARLINK-5920,PAYLOAD,2023-11-12 03:19:09,14.98326221,0.000296,69.9992,264.0236,268.379,91.703,7.3274e-05,7.81e-06,0.0,0 STARLINK-5920,1 55935U 23037X   23316.13830334  .00000781  00000-0  73274-4 0  9995,2 55935  69.9992 264.0236 0002960 268.3790  91.7030 14.98326221 37219,6950.205,96.107,574.127,570.012,0.0
55935.0,STARLINK-5920,PAYLOAD,2023-11-12 06:31:25,14.98329356,0.0002719,69.9993,263.6869,268.1549,91.9298,5.5782e-05,5.73e-06,0.0,0 STARLINK-5920,1 55935U 23037X   23316.27182227  .00000573  00000-0  55782-4 0  9994,2 55935  69.9993 263.6869 0002719 268.1549  91.9298 14.98329356 36892,6950.195,96.107,573.95,570.17,0.0
55935.0,STARLINK-5920,PAYLOAD,2023-11-12 22:32:45,14.98333267,0.0002619,69.9996,262.003,268.8045,91.2814,9.2834e-06,1.8e-07,0.0,0 STARLINK-5920,1 55935U 23037X   23316.93942085  .00000018  00000-0  92834-5 0  9997,2 55935  69.9996 262.0030 0002619 268.8045  91.2814 14.98333267 36999,6950.183,96.107,573.868,570.228,0.0
55935.0,STARLINK-5920,PAYLOAD,2023-11-13 03:21:10,14.98334584,0.0002631,69.9994,261.4981,269.0048,91.0809,1.2596e-05,5.7e-07,0.0,0 STARLINK-5920,1 55935U 23037X   23317.13969947  .00000057  00000-0  12596-4 0  9995,2 55935  69.9994 261.4981 0002631 269.0048  91.0809 14.98334584 37362,6950.179,96.107,573.872,570.215,0.0
55935.0,STARLINK-5920,PAYLOAD,2023-11-13 06:33:25,14.983386,0.000261,69.9996,261.1615,269.1643,90.9217,5.6746e-05,5.84e-06,0.0,0 STARLINK-5920,1 55935U 23037X   23317.27321512  .00000584  00000-0  56746-4 0  9990,2 55935  69.9996 261.1615 0002610 269.1643  90.9217 14.98338600 37043,6950.166,96.106,573.845,570.217,0.0
55935.0,STARLINK-5920,PAYLOAD,2023-11-13 19:22:31,14.98225379,0.0002727,69.9998,259.8159,257.6243,102.4611,0.0018154,0.00021576,0.0,0 STARLINK-5920,1 55935U 23037X   23317.80731303  .00021576  00000-0  18154-2 0  9995,2 55935  69.9998 259.8159 0002727 257.6243 102.4611 14.98225379 37123,6950.516,96.114,574.277,570.486,0.0
